ONEWEB-0229             
1 48779U 21045N   24364.30266438  .00000219  00000+0  54804-3 0  9993
2 48779  87.9060   5.6901 0001608  86.7670 273.3644 13.15550950175216
ONEWEB-0228             
1 48780U 21045P   24363.72670373  .00000080  00000+0  17913-3 0  9993
2 48780  87.9057   5.7831 0001607  89.1279 271.0035 13.15550614175056
ONEWEB-0232             
1 48781U 21045Q   24363.24580182  .00000165  00000+0  40497-3 0  9996
2 48781  87.9054   5.8837 0001691  89.7188 270.4137 13.15549011174187
ONEWEB-0231             
1 48782U 21045R   24363.75600841  .00000049  00000+0  95298-4 0  9999
2 48782  87.9069   5.8416 0001452  90.2287 269.9009 13.15550599175083
ONEWEB-0234             
1 48783U 21045S   24364.00398304  .00000218  00000+0  54597-3 0  9991
2 48783  87.9062   5.7364 0002810 107.7981 252.3456 13.15551347175244
ONEWEB-0238             
1 48784U 21045T   24363.72987440 -.00000020  00000+0 -87496-4 0  9993
2 48784  87.9060   5.8073 0001880  92.5572 267.5773 13.15550233175102
ONEWEB-0240             
1 48785U 21045U   24363.73936568  .00000017  00000+0  11408-4 0  9994
2 48785  87.9059   5.7719 0001454 102.7116 257.4177 13.15551041175128
ONEWEB-0246             
1 48786U 21045V   24364.41833288 -.00000065  00000+0 -20647-3 0  9995
2 48786  87.9062   5.6442 0001603  86.0146 274.1167 13.15550459175080
